{"fetched_at":"2026-03-29T02:12:04Z","count":15717,"tles":[{"name":"BEIDOU-3 M5 (C23)","line1":"1 43581U 18062A   26084.34199135 -.00000012  00000+0  00000+0 0  9995","line2":"2 43581  54.0854 185.1550 0003067 294.9354  65.0457  1.86228672 52079","category":"GPS"}]}