{
  "norad_id": 43581,
  "name": "BEIDOU-3 M5",
  "history": [
    {
      "epoch": "2026-03-25T08:12:28.052640Z",
      "apogee_km": 21536.843028477626,
      "perigee_km": 21519.725229757023,
      "latitude_deg": 2.149889097773849e-05,
      "longitude_deg": -120.76999090556465,
      "height_km": 21524.93028022169,
      "semi_major_axis_km": 27906.421129117323,
      "eccentricity": 0.0003067,
      "inclination_deg": 54.0854,
      "raan_deg": 185.155,
      "arg_perigee_deg": 294.9354,
      "mean_anomaly_deg": 65.0457,
      "mean_motion_rev_day": 1.86228672
    }
  ]
}